{
  "version": 0.6,
  "generator": "Overpass API 0.7.59 e21c39fe",
  "osm3s": {
    "timestamp_osm_base": "2023-02-20T16:37:24Z",
    "timestamp_areas_base": "2023-02-20T09:55:55Z",
    "copyright": "The data included in this document is from www.openstreetmap.org. The data is made available under ODbL."
  },
  "elements": [
    {
      "type": "node",
      "id": 1045131875,
      "lat": -1.1967623,
      "lon": 36.9247331,
      "tags": {
        "name": "YU Cash",
        "shop": "kiosk"
      }
    },
    {
      "type": "node",
      "id": 1045131940,
      "lat": -1.1962763,
      "lon": 36.9254366,
      "tags": {
        "name": "Da Citizen",
        "shop": "stationery"
      }
    },
    {
      "type": "node",
      "id": 1045132041,
      "lat": -1.1892383,
      "lon": 36.9314743,
      "tags": {
        "addr:city": "Nairobi",
        "addr:street": "Thika Road",
        "brand": "Shell",
        "brand:wikidata": "Q154950",
        "brand:wikipedia": "en:Royal Dutch Shell",
        "name": "Shell",
        "offers": "Free Car Wash",
        "shop": "convenience"
      }
    },
    {
      "type": "node",
      "id": 1045132066,
      "lat": -1.197438,
      "lon": 36.9304713,
      "tags": {
        "name": "Kings Cyber",
        "shop": "computer"
      }
    },
    {
      "type": "node",
      "id": 1420042810,
      "lat": -1.0969689,
      "lon": 37.0123646,
      "tags": {
        "name": "Tuck Shop",
        "shop": "kiosk"
      }
    },
    {
      "type": "node",
      "id": 1420754451,
      "lat": -1.0954707,
      "lon": 37.0111859,
      "tags": {
        "name": "Tuck Shop",
        "shop": "kiosk"
      }
    },
    {
      "type": "node",
      "id": 1720504562,
      "lat": -1.141875,
      "lon": 36.9681764,
      "tags": {
        "addr:city": "Ruiru",
        "addr:street": "Thika Road",
        "name": "Dicii Supermarket",
        "shop": "supermarket"
      }
    },
    {
      "type": "node",
      "id": 2106721538,
      "lat": -1.0567625,
      "lon": 36.7779948,
      "tags": {
        "addr:city": "Githunguri",
        "addr:street": "Kiambu Road",
        "name": "Muoroto Supermarket",
        "shop": "supermarket"
      }
    },
    {
      "type": "node",
      "id": 2122225568,
      "lat": -1.1930279,
      "lon": 36.777474,
      "tags": {
        "addr:city": "Kiambu",
        "addr:street": "Limuru Road",
        "brand": "Total",
        "brand:wikidata": "Q154037",
        "brand:wikipedia": "fr:Total (entreprise)",
        "name": "Total",
        "shop": "convenience"
      }
    },
    {
      "type": "node",
      "id": 2480382122,
      "lat": -1.1436353,
      "lon": 36.9701666,
      "tags": {
        "addr:city": "Ruiru",
        "addr:street": "Thika Road",
        "name": "Dicii Mashambani",
        "operator": "Dicii",
        "shop": "supermarket"
      }
    },
    {
      "type": "node",
      "id": 2900625554,
      "lat": -0.986611,
      "lon": 36.6195311,
      "tags": {
        "name": "Hagachui Shop",
        "shop": "convenience"
      }
    },
    {
      "type": "node",
      "id": 2900626405,
      "lat": -0.9893593,
      "lon": 36.6192688,
      "tags": {
        "name": "Nguku Shop",
        "shop": "convenience"
      }
    },
    {
      "type": "node",
      "id": 2966139676,
      "lat": -1.0369052,
      "lon": 37.0756393,
      "tags": {
        "name": "Orange Shop",
        "name:it": "Orange",
        "shop": "mobile_phone"
      }
    },
    {
      "type": "node",
      "id": 2990520445,
      "lat": -1.1315569,
      "lon": 36.6967583,
      "tags": {
        "addr:street": "Limuru Road",
        "name": "Kenchic Pcsales-Factory",
        "shop": "agrarian"
      }
    },
    {
      "type": "node",
      "id": 3379350817,
      "lat": -1.0946628,
      "lon": 37.0131418,
      "tags": {
        "name": "food science",
        "shop": "bakery"
      }
    },
    {
      "type": "node",
      "id": 3379446574,
      "lat": -1.0943912,
      "lon": 37.016273,
      "tags": {
        "name": "studeez",
        "shop": "alcohol"
      }
    },
    {
      "type": "node",
      "id": 3379454695,
      "lat": -1.0951772,
      "lon": 37.0161134,
      "tags": {
        "name": "jkuat",
        "shop": "books"
      }
    },
    {
      "type": "node",
      "id": 3379505513,
      "lat": -1.1000192,
      "lon": 37.0120444,
      "tags": {
        "name": "jokerz",
        "shop": "alcohol"
      }
    },
    {
      "type": "node",
      "id": 3383684634,
      "lat": -1.0946239,
      "lon": 37.0176571,
      "tags": {
        "name": "Tuck Shop",
        "shop": "yes"
      }
    },
    {
      "type": "node",
      "id": 3383684635,
      "lat": -1.0944795,
      "lon": 37.0176929,
      "tags": {
        "name": "Grocery shop",
        "shop": "greengrocer"
      }
    },
    {
      "type": "node",
      "id": 3383961566,
      "lat": -1.0953413,
      "lon": 37.0151931,
      "tags": {
        "shop": "hairdresser"
      }
    },
    {
      "type": "node",
      "id": 3406973820,
      "lat": -1.0998162,
      "lon": 37.0122453,
      "tags": {
        "shop": "second_hand"
      }
    },
    {
      "type": "node",
      "id": 3406973821,
      "lat": -1.0997907,
      "lon": 37.0122882,
      "tags": {
        "shop": "second_hand"
      }
    },
    {
      "type": "node",
      "id": 3406973822,
      "lat": -1.0998054,
      "lon": 37.0123539,
      "tags": {
        "shop": "second_hand"
      }
    },
    {
      "type": "node",
      "id": 3406973823,
      "lat": -1.099847,
      "lon": 37.0123901,
      "tags": {
        "shop": "second_hand"
      }
    },
    {
      "type": "node",
      "id": 3733119228,
      "lat": -1.1079885,
      "lon": 37.0137408,
      "tags": {
        "addr:city": "Juja",
        "addr:street": "Thika Road",
        "name": "Uchumi Supermarket, Juja Branch",
        "opening_hours": "8:30 - 8:30",
        "operator": "Uchumi",
        "shop": "supermarket"
      }
    },
    {
      "type": "node",
      "id": 3735796573,
      "lat": -1.1021049,
      "lon": 37.0137916,
      "tags": {
        "addr:city": "Juja",
        "addr:street": "Mucatha Road",
        "drive_through": "no",
        "name": "Jojawa Wines and Spirits",
        "operator": "Jojawa",
        "shop": "alcohol"
      }
    },
    {
      "type": "node",
      "id": 3752696364,
      "lat": -1.0943729,
      "lon": 37.0164135,
      "tags": {
        "shop": "convenience"
      }
    },
    {
      "type": "node",
      "id": 3765377224,
      "lat": -1.1065261,
      "lon": 37.014842,
      "tags": {
        "addr:city": "Juja",
        "addr:street": "Gatundu-Juja Road",
        "name": "Priceworth supermarket",
        "opening_hours": "08:00-20:00",
        "shop": "supermarket"
      }
    },
    {
      "type": "node",
      "id": 3766329566,
      "lat": -1.1047951,
      "lon": 37.01389,
      "tags": {
        "addr:city": "juja",
        "name": "Happy Supermarket",
        "opening_hours": "08:00-19:30",
        "shop": "supermarket"
      }
    },
    {
      "type": "node",
      "id": 4324871219,
      "lat": -1.2452645,
      "lon": 36.665367,
      "tags": {
        "name": "Joska investment",
        "shop": "dry_cleaning"
      }
    },
    {
      "type": "node",
      "id": 4324873069,
      "lat": -1.2455231,
      "lon": 36.6642037,
      "tags": {
        "addr:city": "Kikuyu",
        "addr:street": "Southern Bypass",
        "name": "Sweetworld supermarket",
        "shop": "supermarket"
      }
    },
    {
      "type": "node",
      "id": 4324873131,
      "lat": -1.2453053,
      "lon": 36.6623886,
      "tags": {
        "name": "Kikuyu Selfridges Supermarket",
        "shop": "supermarket"
      }
    },
    {
      "type": "node",
      "id": 4324873817,
      "lat": -1.2404959,
      "lon": 36.6651876,
      "tags": {
        "name": "Kikuyu pipes hardware",
        "shop": "hardware"
      }
    },
    {
      "type": "node",
      "id": 4324873818,
      "lat": -1.2447814,
      "lon": 36.665433,
      "tags": {
        "name": "Antraca Supermarket",
        "shop": "supermarket"
      }
    },
    {
      "type": "node",
      "id": 4324883800,
      "lat": -1.2446385,
      "lon": 36.6635924,
      "tags": {
        "addr:city": "Kikuyu",
        "addr:street": "Post Office Road",
        "name": "Fairmat supermarket",
        "shop": "supermarket"
      }
    },
    {
      "type": "node",
      "id": 4324883802,
      "lat": -1.2460238,
      "lon": 36.6652875,
      "tags": {
        "name": "Bata",
        "shop": "shoes"
      }
    },
    {
      "type": "node",
      "id": 4324895094,
      "lat": -1.2456208,
      "lon": 36.6653765,
      "tags": {
        "addr:city": "Kikuyu",
        "addr:street": "Kikuyu Road",
        "name": "Kikuyu Selfridges Pioneer branch",
        "shop": "supermarket"
      }
    },
    {
      "type": "node",
      "id": 4639479157,
      "lat": -1.1469153,
      "lon": 36.7485741,
      "tags": {
        "name": "Black petals rose farm",
        "shop": "farm"
      }
    },
    {
      "type": "node",
      "id": 4946671721,
      "lat": -1.0555188,
      "lon": 37.1145712,
      "tags": {
        "name": "Ananas Mall",
        "name:en": "Ananas Mall",
        "shop": "department_store"
      }
    },
    {
      "type": "node",
      "id": 5139874023,
      "lat": -1.1733148,
      "lon": 36.6131924,
      "tags": {
        "brand": "Copia Agent",
        "contact:phone": "0722123456",
        "copia:Area Manager": "Annah Mwikali",
        "copia:Sales Associate": "Irene Nafula",
        "name": "Joyce Nyakio Njoroge",
        "opening_hours": "Mo-Sa 07:00-19:00",
        "place:county": "Kiambu",
        "place:location": "Nduma",
        "place:region": "Kikuyu",
        "place:sublocation": "Kanduma",
        "place:village": "Nduma",
        "shop": "doityourself"
      }
    },
    {
      "type": "node",
      "id": 5141216722,
      "lat": -1.1787029,
      "lon": 36.6257689,
      "tags": {
        "brand": "Copia Agent",
        "contact:phone": "0721000086",
        "copia:Area Manager": "Annah Mwikali",
        "copia:Sales Associate": "Irene Nafula",
        "name": "Ayub Mwathi Mwangi",
        "opening_hours": "Mo-Sa 07:00-19:00",
        "place:county": "Kiambu",
        "place:location": "Kanduma",
        "place:region": "Kikuyu",
        "place:sublocation": "Kanduma",
        "place:village": "Kanduma",
        "shop": "doityourself"
      }
    },
    {
      "type": "node",
      "id": 5141237449,
      "lat": -1.1744073,
      "lon": 36.6340463,
      "tags": {
        "brand": "Copia Agent",
        "contact:phone": "0756861111",
        "copia:Area Manager": "Annah Mwikali",
        "copia:Sales Associate": "Irene Nafula",
        "name": "Teresia Njeri Kamau",
        "opening_hours": "Mo-Sa 07:00-19:00",
        "place:county": "Kiambu",
        "place:location": "Kerwa",
        "place:region": "Kikuyu",
        "place:sublocation": "Kanduma",
        "place:village": "Kerwa",
        "shop": "doityourself"
      }
    },
    {
      "type": "node",
      "id": 5141288096,
      "lat": -1.0162408,
      "lon": 36.7071163,
      "tags": {
        "brand": "Copia Agent",
        "contact:phone": "07288888888",
        "copia:Area Manager": "Annah Mwikali",
        "copia:Sales Associate": "Irene Nafula",
        "name": "Copia Agent",
        "opening_hours": "Mo-Sa 07:00-19:00",
        "operator": "Mr. Macharia",
        "place:county": "Kiambu",
        "place:location": "Kamburu",
        "place:region": "Githunguri",
        "place:sublocation": "Kamburu",
        "place:village": "Kamburu",
        "shop": "doityourself"
      }
    },
    {
      "type": "node",
      "id": 5149076663,
      "lat": -1.041055,
      "lon": 36.7111411,
      "tags": {
        "brand": "Copia Agent",
        "contact:phone": "0700000000",
        "copia:Area Manager": "Annah Mwikali",
        "copia:Sales Associate": "Doreen Maina",
        "name": "Copia Agent",
        "opening_hours": "Mo-Sa 07:00-19:00",
        "operator": "Martha",
        "place:county": "Kiambu",
        "place:location": "Kiambu",
        "place:region": "Kiambu",
        "place:sublocation": "Kiambu",
        "place:village": "Matimbei",
        "shop": "doityourself"
      }
    },
    {
      "type": "node",
      "id": 5162719022,
      "lat": -1.0116912,
      "lon": 36.9027003,
      "tags": {
        "name": "Happy Supermarket",
        "shop": "supermarket"
      }
    },
    {
      "type": "node",
      "id": 5232810622,
      "lat": -1.2600325,
      "lon": 36.666564,
      "tags": {
        "name": "School Canteen",
        "shop": "variety_store"
      }
    },
    {
      "type": "node",
      "id": 5327750076,
      "lat": -1.1708927,
      "lon": 36.8277829,
      "tags": {
        "addr:city": "Kiambu",
        "addr:street": "Biashara Street Kiambu",
        "name": "Kamindi Self Ridges Supermarkets",
        "opening_hours": "Mo-Su 09:00-21:00",
        "operator": "Kamindi Supermarkets",
        "shop": "supermarket"
      }
    },
    {
      "type": "node",
      "id": 5327761927,
      "lat": -1.1703639,
      "lon": 36.8282363,
      "tags": {
        "name": "Freb Pharmacy",
        "operator": "Dr Kingori",
        "shop": "chemist"
      }
    },
    {
      "type": "node",
      "id": 5327764144,
      "lat": -1.1701365,
      "lon": 36.8273277,
      "tags": {
        "name": "Cleanshelf Supermarkets",
        "operator": "Cleanshelf Supermarkets",
        "shop": "supermarket"
      }
    },
    {
      "type": "node",
      "id": 5327765256,
      "lat": -1.169865,
      "lon": 36.8274429,
      "tags": {
        "name": "Wakim Fruit Complex",
        "operator": "Wakim",
        "shop": "yes"
      }
    },
    {
      "type": "node",
      "id": 5327772972,
      "lat": -1.1705386,
      "lon": 36.8276171,
      "tags": {
        "addr:city": "Kiambu",
        "addr:street": "Biashara Street Kiambu",
        "name": "Peflo Centre",
        "shop": "hardware"
      }
    },
    {
      "type": "node",
      "id": 5327773631,
      "lat": -1.1695615,
      "lon": 36.8268415,
      "tags": {
        "addr:city": "Kiambu",
        "addr:street": "Biashara Street Kiambu",
        "name": "SmartHome Supermarkets",
        "shop": "supermarket"
      }
    },
    {
      "type": "node",
      "id": 5327773638,
      "lat": -1.1693245,
      "lon": 36.8267839,
      "tags": {
        "name": "Olegeise Investments",
        "shop": "hardware"
      }
    },
    {
      "type": "node",
      "id": 5327773654,
      "lat": -1.169954,
      "lon": 36.8272241,
      "tags": {
        "name": "Sheqel Hardware",
        "shop": "hardware"
      }
    },
    {
      "type": "node",
      "id": 5327778960,
      "lat": -1.1692214,
      "lon": 36.8266775,
      "tags": {
        "name": "Bata Kiambu",
        "shop": "shoes"
      }
    },
    {
      "type": "node",
      "id": 5327790866,
      "lat": -1.1726092,
      "lon": 36.830258,
      "tags": {
        "addr:city": "Kiambu",
        "addr:street": "Biashara Street Kiambu",
        "name": "Bata Kiambu",
        "operator": "Bata Shoe Co",
        "shop": "shoes"
      }
    },
    {
      "type": "node",
      "id": 5327794095,
      "lat": -1.1729877,
      "lon": 36.8416453,
      "tags": {
        "addr:city": "Kirigiti",
        "addr:street": "Kamiti Road",
        "name": "G Unit EX-UK SuperStore",
        "shop": "doityourself"
      }
    },
    {
      "type": "node",
      "id": 5327798081,
      "lat": -1.1716795,
      "lon": 36.8409541,
      "tags": {
        "name": "Rubir's Mini Market",
        "operator": "WaNgugi",
        "shop": "supermarket"
      }
    },
    {
      "type": "node",
      "id": 5327852706,
      "lat": -1.1715681,
      "lon": 36.841664,
      "tags": {
        "name": "Kirigiti Farmers centre",
        "operator": "Veronica Njunge",
        "shop": "hardware"
      }
    },
    {
      "type": "node",
      "id": 5327864868,
      "lat": -1.1653352,
      "lon": 36.8408771,
      "tags": {
        "name": "Wa Lucy General Shop",
        "operator": "Wa Lucy",
        "shop": "yes"
      }
    },
    {
      "type": "node",
      "id": 5329663639,
      "lat": -1.1730572,
      "lon": 36.831038,
      "tags": {
        "name": "KCT Kiambu Branch",
        "shop": "electronics"
      }
    },
    {
      "type": "node",
      "id": 5336231186,
      "lat": -1.1716999,
      "lon": 36.8420849,
      "tags": {
        "addr:city": "Kirigiti",
        "addr:street": "Kamiti Road",
        "name": "Kirigiti Supermarket",
        "shop": "supermarket"
      }
    },
    {
      "type": "node",
      "id": 5336243781,
      "lat": -1.1702445,
      "lon": 36.8408822,
      "tags": {
        "name": "Shegeh Distributors",
        "shop": "hardware"
      }
    },
    {
      "type": "node",
      "id": 5343446504,
      "lat": -1.1998961,
      "lon": 36.8356185,
      "tags": {
        "name": "Home Choice Supermarket",
        "shop": "supermarket"
      }
    },
    {
      "type": "node",
      "id": 5343446510,
      "lat": -1.2041192,
      "lon": 36.8337598,
      "tags": {
        "addr:city": "Kiambu",
        "addr:street": "Kiambu Road",
        "name": "The Glamour Executive Barber Shop",
        "shop": "beauty"
      }
    },
    {
      "type": "node",
      "id": 5392250493,
      "lat": -1.1089413,
      "lon": 36.6433371,
      "tags": {
        "name": "Cleanshelf supermarket",
        "shop": "supermarket"
      }
    },
    {
      "type": "node",
      "id": 5540763587,
      "lat": -1.2204482,
      "lon": 36.7130682,
      "tags": {
        "addr:city": "Wangige",
        "addr:street": "Gitaru Road",
        "name": "Smart Home Supermarket",
        "shop": "supermarket"
      }
    },
    {
      "type": "node",
      "id": 5540763588,
      "lat": -1.2205741,
      "lon": 36.7138602,
      "tags": {
        "addr:city": "Wangige",
        "addr:street": "Wamakumi Road",
        "name": "Wangige Shopping Mall",
        "shop": "mall"
      }
    },
    {
      "type": "node",
      "id": 5540763589,
      "lat": -1.2192485,
      "lon": 36.7141715,
      "tags": {
        "addr:city": "Wangige",
        "addr:street": "Mwimuto Road",
        "name": "Selfridges Supermarket",
        "shop": "supermarket"
      }
    },
    {
      "type": "node",
      "id": 5760312000,
      "lat": -1.1778579,
      "lon": 36.939757,
      "tags": {
        "shop": "butcher"
      }
    },
    {
      "type": "node",
      "id": 6054861949,
      "lat": -0.9718727,
      "lon": 36.6181394,
      "tags": {
        "addr:city": "Kijabe",
        "addr:street": "Kijabe Hospital Link Road",
        "name": "Matathia Shopping Center",
        "shop": "mall"
      }
    },
    {
      "type": "node",
      "id": 6054861950,
      "lat": -0.9448082,
      "lon": 36.5966217,
      "tags": {
        "addr:city": "Kijabe",
        "addr:street": "Kijabe Road",
        "name": "Kijabe Shopping Centre",
        "shop": "mall"
      }
    },
    {
      "type": "node",
      "id": 6054946551,
      "lat": -0.9236818,
      "lon": 36.6113049,
      "tags": {
        "addr:city": "kijabe_location",
        "addr:street": "Nairobi - Nakuru Road",
        "name": "Gichiengo Shops",
        "shop": "mall"
      }
    },
    {
      "type": "node",
      "id": 6060431639,
      "lat": -1.1861328,
      "lon": 36.5984271,
      "tags": {
        "addr:street": "Boroti Ngirigaca Road",
        "name": "Boroti Shoping Center",
        "shop": "mall"
      }
    },
    {
      "type": "node",
      "id": 6063334490,
      "lat": -1.110453,
      "lon": 36.6426713,
      "tags": {
        "addr:city": "Kiambu",
        "addr:street": "Rongai Market Road",
        "name": "Limumatt Supermarket",
        "shop": "supermarket"
      }
    },
    {
      "type": "node",
      "id": 6063334491,
      "lat": -1.1106513,
      "lon": 36.6425878,
      "tags": {
        "addr:city": "Kiambu",
        "addr:street": "Rongai Market Road",
        "name": "Taivas Supermarket",
        "shop": "supermarket"
      }
    },
    {
      "type": "node",
      "id": 6063334492,
      "lat": -1.1108521,
      "lon": 36.6424756,
      "tags": {
        "addr:city": "Kiambu",
        "addr:street": "Rongai Market Road",
        "name": "Wingmatt Supermarker",
        "shop": "supermarket"
      }
    },
    {
      "type": "node",
      "id": 6063334493,
      "lat": -1.1112277,
      "lon": 36.6422722,
      "tags": {
        "addr:city": "Kiambu",
        "addr:street": "Rongai Market Road",
        "name": "Bata",
        "shop": "shoes"
      }
    },
    {
      "type": "node",
      "id": 6063334501,
      "lat": -1.1134214,
      "lon": 36.6419226,
      "tags": {
        "addr:city": "Kiambu",
        "addr:street": "Rongai Market Road",
        "name": "Rongai Supermarket",
        "shop": "supermarket"
      }
    },
    {
      "type": "node",
      "id": 6063334541,
      "lat": -1.1085072,
      "lon": 36.6412417,
      "tags": {
        "addr:city": "Kiambu",
        "addr:street": "Kimuchu Road",
        "name": "Pork & Bacon Supermarket",
        "shop": "supermarket"
      }
    },
    {
      "type": "node",
      "id": 6063334768,
      "lat": -1.109387,
      "lon": 36.6437651,
      "tags": {
        "addr:city": "Kiambu",
        "addr:street": "Kiambu Road",
        "brand": "Bata",
        "brand:wikidata": "Q688082",
        "brand:wikipedia": "en:Bata (company)",
        "name": "Bata",
        "shop": "shoes"
      }
    },
    {
      "type": "node",
      "id": 6063334959,
      "lat": -1.0974263,
      "lon": 36.6871899,
      "tags": {
        "addr:city": "Limuru",
        "addr:street": "Nazareth Hospital Road",
        "name": "Jomaris Shopping Centre",
        "shop": "mall"
      }
    },
    {
      "type": "node",
      "id": 6063335073,
      "lat": -1.106651,
      "lon": 36.7664481,
      "tags": {
        "addr:street": "Kiambu Road",
        "name": "Kamondo Shopping Center",
        "shop": "mall"
      }
    },
    {
      "type": "node",
      "id": 6063643870,
      "lat": -1.0842402,
      "lon": 36.7256274,
      "tags": {
        "addr:city": "Githiga",
        "addr:street": "Kiamacani-Githiga Road",
        "name": "Githunguri Dairy Store - Route 3C",
        "shop": "agrarian"
      }
    },
    {
      "type": "node",
      "id": 6063644315,
      "lat": -1.0573865,
      "lon": 36.7766461,
      "tags": {
        "addr:city": "Githunguri",
        "addr:street": "Kiambu Road",
        "name": "Rongai Supermarket",
        "shop": "supermarket"
      }
    },
    {
      "type": "node",
      "id": 6063644316,
      "lat": -1.057482,
      "lon": 36.7764904,
      "tags": {
        "addr:city": "Githunguri",
        "addr:street": "Kiambu Road",
        "name": "Naivas Supermarket",
        "shop": "supermarket"
      }
    },
    {
      "type": "node",
      "id": 6063645026,
      "lat": -1.0537566,
      "lon": 36.6321315,
      "tags": {
        "addr:city": "Uplands",
        "addr:street": "C65",
        "name": "Evergreen Hyper Supermarket",
        "shop": "supermarket"
      }
    },
    {
      "type": "node",
      "id": 6064156807,
      "lat": -1.1718603,
      "lon": 36.8289734,
      "tags": {
        "addr:city": "Kiambu",
        "addr:street": "Biashara Street Kiambu",
        "name": "Kamindi Supermarket",
        "shop": "supermarket"
      }
    },
    {
      "type": "node",
      "id": 6116636152,
      "lat": -1.1592002,
      "lon": 36.7442109,
      "tags": {
        "addr:city": "Raini",
        "addr:street": "Boma Road",
        "name": "(Nn) Mwalimu Supermarket & Wholesale",
        "shop": "supermarket"
      }
    },
    {
      "type": "node",
      "id": 6116637290,
      "lat": -1.1610693,
      "lon": 36.7287589,
      "tags": {
        "addr:city": "Riara Ridge",
        "addr:street": "Raini-Goldhands Road",
        "name": "Ladywood Farm",
        "shop": "agrarian"
      }
    },
    {
      "type": "node",
      "id": 6116638079,
      "lat": -1.1286068,
      "lon": 36.6879849,
      "tags": {
        "addr:city": "Limuru",
        "addr:street": "Limuru Road",
        "name": "100 Lights Farm",
        "shop": "agrarian"
      }
    },
    {
      "type": "node",
      "id": 6116638081,
      "lat": -1.1276506,
      "lon": 36.6818765,
      "tags": {
        "addr:city": "Limuru",
        "addr:street": "Saint George's Road",
        "name": "Browns Cheese",
        "shop": "agrarian"
      }
    },
    {
      "type": "node",
      "id": 6116638312,
      "lat": -1.1403537,
      "lon": 36.6872136,
      "tags": {
        "name": "Ravenswood Farm",
        "shop": "agrarian"
      }
    },
    {
      "type": "node",
      "id": 6161845859,
      "lat": -1.1986031,
      "lon": 36.8363544,
      "tags": {
        "addr:city": "kiambu",
        "addr:street": "Kiambu Road",
        "name": "Express Garage",
        "shop": "car_repair"
      }
    },
    {
      "type": "node",
      "id": 6161851339,
      "lat": -1.185206,
      "lon": 36.8391783,
      "tags": {
        "addr:city": "Kiambu",
        "addr:street": "Kiambu Road",
        "name": "H and M Supplies",
        "shop": "hardware"
      }
    },
    {
      "type": "node",
      "id": 6199038537,
      "lat": -1.143088,
      "lon": 36.9654763,
      "tags": {
        "addr:city": "Ruiru",
        "addr:street": "Thika Road",
        "name": "ASTROL",
        "shop": "tyres"
      }
    },
    {
      "type": "node",
      "id": 6199038538,
      "lat": -1.1424955,
      "lon": 36.9657384,
      "tags": {
        "addr:city": "Ruiru",
        "addr:street": "Thika Road",
        "name": "Esser Supermarket",
        "shop": "supermarket"
      }
    },
    {
      "type": "node",
      "id": 6199038548,
      "lat": -1.1372123,
      "lon": 36.9699014,
      "tags": {
        "addr:city": "Ruiru",
        "addr:street": "Thika Road",
        "name": "Naivas Supermarket Spur Mall",
        "shop": "supermarket"
      }
    },
    {
      "type": "node",
      "id": 6199038592,
      "lat": -1.1330442,
      "lon": 36.9727381,
      "tags": {
        "addr:city": "Ruiru",
        "addr:street": "Thika Road",
        "name": "Rexolmart Supermarket",
        "shop": "supermarket"
      }
    },
    {
      "type": "node",
      "id": 6199038663,
      "lat": -1.1249558,
      "lon": 37.0046093,
      "tags": {
        "addr:city": "Thika",
        "addr:street": "Kenyatta Road",
        "name": "Nessy Mart Supermarket",
        "shop": "supermarket"
      }
    },
    {
      "type": "node",
      "id": 6200899861,
      "lat": -1.1584069,
      "lon": 36.9068862,
      "tags": {
        "addr:city": "Ruiru",
        "addr:street": "Kamiti Road",
        "name": "Tatu City Headquarters",
        "shop": "farm"
      }
    },
    {
      "type": "node",
      "id": 6200899862,
      "lat": -1.1530522,
      "lon": 36.9120989,
      "tags": {
        "addr:city": "Ruiru",
        "addr:street": "Kamiti Road",
        "name": "Kenya Tents Ruiru Workshop",
        "shop": "clothes"
      }
    },
    {
      "type": "node",
      "id": 6207341894,
      "lat": -1.1492021,
      "lon": 36.952937,
      "tags": {
        "addr:city": "Ruiru",
        "addr:street": "Kamiti Road",
        "name": "Quick Mart Ruiru",
        "shop": "supermarket"
      }
    },
    {
      "type": "node",
      "id": 6207341899,
      "lat": -1.1527562,
      "lon": 36.9553671,
      "tags": {
        "addr:city": "Ruiru",
        "addr:street": "P.G. Dodhia Road",
        "name": "Overland 4x4 Ltd.",
        "shop": "car_parts"
      }
    },
    {
      "type": "node",
      "id": 6207490929,
      "lat": -1.1313318,
      "lon": 36.982167,
      "tags": {
        "addr:city": "Ruiru",
        "addr:street": "Church Avenue",
        "name": "Toll Station Shopping Center",
        "shop": "mall"
      }
    },
    {
      "type": "node",
      "id": 6207691336,
      "lat": -1.0427341,
      "lon": 37.0555903,
      "tags": {
        "addr:city": "Thika",
        "addr:street": "Thika-Mang'u Road",
        "name": "TedMart Supermarket",
        "shop": "supermarket"
      }
    },
    {
      "type": "node",
      "id": 6207691337,
      "lat": -1.0413395,
      "lon": 37.0518431,
      "tags": {
        "addr:city": "Thika",
        "addr:street": "Thika-Mang'u Road",
        "name": "Ngoingwa Business Center",
        "shop": "mall"
      }
    },
    {
      "type": "node",
      "id": 6207691354,
      "lat": -1.0384474,
      "lon": 37.0679424,
      "tags": {
        "addr:city": "Thika",
        "addr:street": "Mgoko Road",
        "name": "Pakjel Supermarket",
        "shop": "supermarket"
      }
    },
    {
      "type": "node",
      "id": 6209899662,
      "lat": -1.0392718,
      "lon": 37.0715206,
      "tags": {
        "addr:city": "Thika",
        "addr:street": "Mombasa road",
        "name": "Maisha Heights",
        "shop": "mall"
      }
    },
    {
      "type": "node",
      "id": 6209964960,
      "lat": -1.0363199,
      "lon": 37.072468,
      "tags": {
        "addr:city": "Thika",
        "addr:street": "Workshop Road",
        "name": "Naivas Supermarket",
        "shop": "supermarket"
      }
    },
    {
      "type": "node",
      "id": 6209964961,
      "lat": -1.0356706,
      "lon": 37.0731048,
      "tags": {
        "addr:city": "Thika",
        "addr:street": "Mama Ngina Drive",
        "name": "Maathai's Supermarket",
        "shop": "supermarket",
        "wikidata": "Q23461742"
      }
    },
    {
      "type": "node",
      "id": 6210053467,
      "lat": -1.0516381,
      "lon": 37.0993732,
      "tags": {
        "addr:city": "Thika",
        "addr:street": "Garissa Road",
        "name": "AutoXpress Ltd - Thika",
        "shop": "tyres"
      }
    },
    {
      "type": "node",
      "id": 6249531858,
      "lat": -1.2050274,
      "lon": 36.9174219,
      "tags": {
        "addr:city": "Nairobi",
        "addr:street": "Mwihoko Road",
        "name": "Kassmat Jumbo Supermarket",
        "shop": "supermarket"
      }
    },
    {
      "type": "node",
      "id": 6249531859,
      "lat": -1.2054169,
      "lon": 36.9177135,
      "tags": {
        "addr:city": "Nairobi",
        "addr:street": "Mwihoko Road",
        "name": "Naivas Supermarket, Githurai Branch.",
        "shop": "supermarket"
      }
    },
    {
      "type": "node",
      "id": 6249723234,
      "lat": -1.1893601,
      "lon": 36.9322952,
      "tags": {
        "addr:city": "Nairobi",
        "addr:street": "Kahawa Sukari Avenue",
        "name": "Quick Mart Kahawa Sukari",
        "shop": "supermarket"
      }
    },
    {
      "type": "node",
      "id": 6249723385,
      "lat": -1.1952105,
      "lon": 36.9463869,
      "tags": {
        "addr:city": "Nairobi",
        "addr:street": "Kahawa Sukari Avenue",
        "name": "Nyandis Supermarket",
        "shop": "supermarket"
      }
    },
    {
      "type": "node",
      "id": 6251534673,
      "lat": -1.160819,
      "lon": 36.9597434,
      "tags": {
        "addr:city": "Ruiru",
        "addr:street": "1st Sunrise Avenue",
        "name": "Reemart Supermarket",
        "shop": "supermarket"
      }
    },
    {
      "type": "node",
      "id": 6251534674,
      "lat": -1.1597977,
      "lon": 36.958185,
      "tags": {
        "addr:city": "Ruiru",
        "addr:street": "Thika Road",
        "name": "Leestar Supermarket",
        "shop": "supermarket"
      }
    },
    {
      "type": "node",
      "id": 6251534675,
      "lat": -1.1594233,
      "lon": 36.9583474,
      "tags": {
        "addr:city": "Ruiru",
        "addr:street": "Thika Road",
        "name": "Leestar Supermarket",
        "shop": "supermarket"
      }
    },
    {
      "type": "node",
      "id": 6251561020,
      "lat": -1.1297746,
      "lon": 36.6440729,
      "tags": {
        "addr:city": "Limuru",
        "addr:street": "Limuru Road",
        "name": "FRESH AN JUICI LTD & FRESH SQUEEZE LTD",
        "shop": "supermarket"
      }
    },
    {
      "type": "node",
      "id": 6251561021,
      "lat": -1.1396722,
      "lon": 36.6604833,
      "tags": {
        "addr:city": "Limuru",
        "addr:street": "Limuru Road",
        "name": "Gathoni Park Farm Gate",
        "shop": "tea"
      }
    },
    {
      "type": "node",
      "id": 6251561024,
      "lat": -1.1498099,
      "lon": 36.6683149,
      "tags": {
        "addr:city": "Limuru",
        "addr:street": "Limuru Road",
        "name": "Jumuia Conference and Country Home",
        "shop": "garden_centre"
      }
    },
    {
      "type": "node",
      "id": 6251561026,
      "lat": -1.1555691,
      "lon": 36.6709391,
      "tags": {
        "addr:city": "Kabuku",
        "addr:street": "Ngecha-Kabuku Road",
        "name": "Kabuku Shopping Center",
        "shop": "mall"
      }
    },
    {
      "type": "node",
      "id": 6251561793,
      "lat": -1.2535473,
      "lon": 36.6893149,
      "tags": {
        "addr:city": "Kikuyu",
        "addr:street": "A104",
        "brand": "BMW",
        "brand:wikidata": "Q26678",
        "name": "VERMINAH BMW SERVICE",
        "shop": "car"
      }
    },
    {
      "type": "node",
      "id": 6251561794,
      "lat": -1.2529144,
      "lon": 36.6915792,
      "tags": {
        "addr:city": "Kikuyu",
        "addr:street": "A104",
        "name": "Villa Moran Apartment",
        "shop": "mall"
      }
    },
    {
      "type": "node",
      "id": 6257535846,
      "lat": -1.2242953,
      "lon": 36.705996,
      "tags": {
        "addr:city": "Kiambu",
        "addr:street": "Gitaru Road",
        "name": "Kingeero Shopping Centre",
        "shop": "mall"
      }
    },
    {
      "type": "node",
      "id": 6257722319,
      "lat": -1.1649984,
      "lon": 36.8243212,
      "tags": {
        "addr:city": "Kiambu",
        "addr:street": "Kiambu Road",
        "name": "Choppies Supermarket Kiambu",
        "shop": "supermarket"
      }
    },
    {
      "type": "node",
      "id": 6397775451,
      "lat": -1.2046459,
      "lon": 36.7768286,
      "tags": {
        "addr:city": "Ruaka",
        "addr:street": "Limuru Road",
        "name": "Joy Land Supermarket",
        "shop": "supermarket"
      }
    },
    {
      "type": "node",
      "id": 6847249063,
      "lat": -1.1467091,
      "lon": 36.9592633,
      "tags": {
        "addr:city": "Ruiru",
        "addr:street": "Njiri Karago Road",
        "name": "Powerstar Hyper",
        "shop": "supermarket"
      }
    },
    {
      "type": "node",
      "id": 6847661771,
      "lat": -1.0400912,
      "lon": 37.0643477,
      "tags": {
        "addr:city": "Thika",
        "addr:street": "Thika Road",
        "name": "Mims Shop",
        "shop": "farm"
      }
    },
    {
      "type": "node",
      "id": 6847661772,
      "lat": -1.038008,
      "lon": 37.0677119,
      "tags": {
        "addr:city": "Thika",
        "addr:street": "Mgoko Road",
        "name": "Chapchap Minimart",
        "shop": "supermarket"
      }
    },
    {
      "type": "node",
      "id": 6847661777,
      "lat": -1.0355207,
      "lon": 37.0756735,
      "tags": {
        "addr:city": "Thika",
        "addr:street": "Uhuru Street",
        "name": "Tuskys  (Chap Chap Thika)",
        "shop": "supermarket"
      }
    },
    {
      "type": "node",
      "id": 6847661782,
      "lat": -1.0369806,
      "lon": 37.0756323,
      "tags": {
        "addr:city": "Thika",
        "addr:street": "Commercial Street",
        "name": "Bata Shop Depot",
        "shop": "shoes"
      }
    },
    {
      "type": "node",
      "id": 6851086245,
      "lat": -1.0550066,
      "lon": 37.1112209,
      "tags": {
        "addr:city": "Thika",
        "addr:street": "Garissa Road",
        "brand": "Shell",
        "brand:wikidata": "Q154950",
        "brand:wikipedia": "en:Royal Dutch Shell",
        "name": "Shell",
        "shop": "convenience"
      }
    },
    {
      "type": "node",
      "id": 6851086261,
      "lat": -1.0584968,
      "lon": 37.1178284,
      "tags": {
        "addr:city": "Thika",
        "addr:street": "Garissa Road",
        "name": "the salib supermarket",
        "shop": "supermarket"
      }
    },
    {
      "type": "node",
      "id": 7550869007,
      "lat": -1.1424998,
      "lon": 36.744732,
      "tags": {
        "name": "BLACK PETALS LTD",
        "shop": "florist"
      }
    },
    {
      "type": "node",
      "id": 7551023787,
      "lat": -1.0386483,
      "lon": 37.0833257,
      "tags": {
        "name": "CHAMUNDA IRON & STEEL HARDWARE LTD",
        "shop": "hardware"
      }
    },
    {
      "type": "node",
      "id": 7877480786,
      "lat": -1.1952168,
      "lon": 36.9462739,
      "tags": {
        "addr:street": "Kahawa Sukari Avenue",
        "name": "Mt. Kenya butchery",
        "shop": "butcher"
      }
    },
    {
      "type": "node",
      "id": 7987341027,
      "lat": -1.1865512,
      "lon": 36.9972,
      "tags": {
        "name": "Korner hardware",
        "shop": "hardware"
      }
    },
    {
      "type": "node",
      "id": 7987717547,
      "lat": -1.1661656,
      "lon": 36.9530603,
      "tags": {
        "addr:city": "Ruiru",
        "addr:housenumber": "exit 11",
        "addr:postcode": "88255-00200",
        "addr:street": "Thika Road",
        "email": "info@insighta.co.ke",
        "name": "Insighta",
        "opening_hours": "Mo-Fr 08:00-17:00",
        "opening_hours:covid19": "open",
        "operator": "Martin Maingi Ndanu",
        "payment:cash": "yes",
        "payment:credit_cards": "yes",
        "shop": "printer_ink",
        "website": "https://insighta.co.ke"
      }
    },
    {
      "type": "node",
      "id": 8164646798,
      "lat": -1.0558268,
      "lon": 37.1144969,
      "tags": {
        "addr:city": "Thika",
        "addr:street": "Garissa Road",
        "name": "Naivas",
        "shop": "supermarket"
      }
    },
    {
      "type": "node",
      "id": 8193801349,
      "lat": -1.1301587,
      "lon": 36.7652698,
      "tags": {
        "addr:street": "Kiambu Road",
        "name": "Naivas",
        "shop": "supermarket"
      }
    },
    {
      "type": "node",
      "id": 8193801356,
      "lat": -1.0428474,
      "lon": 37.0488932,
      "tags": {
        "addr:city": "Thika",
        "addr:street": "Thika-Mang'u Road",
        "name": "Ngoi Supermarkets Ltd",
        "shop": "supermarket"
      }
    },
    {
      "type": "node",
      "id": 8193801358,
      "lat": -1.0439388,
      "lon": 37.0671547,
      "tags": {
        "addr:city": "Thika",
        "addr:street": "Garissa Road",
        "name": "Thika Gateway Plaza & Residence",
        "shop": "mall"
      }
    },
    {
      "type": "node",
      "id": 8193801360,
      "lat": -1.0366892,
      "lon": 37.0755215,
      "tags": {
        "addr:city": "Thika",
        "addr:street": "Commercial Street",
        "name": "Kassmatt",
        "shop": "supermarket"
      }
    },
    {
      "type": "node",
      "id": 8247882581,
      "lat": -1.1673336,
      "lon": 36.9637655,
      "tags": {
        "addr:city": "Ruiru",
        "addr:street": "Eastern Bypass",
        "name": "Quick Mart Eastern Bypass",
        "shop": "supermarket"
      }
    },
    {
      "type": "node",
      "id": 8247882583,
      "lat": -1.1697576,
      "lon": 36.9709301,
      "tags": {
        "addr:city": "Nairobi",
        "addr:street": "Eastern Bypass",
        "name": "Naivas Kamakis",
        "shop": "supermarket"
      }
    },
    {
      "type": "node",
      "id": 8318718275,
      "lat": -1.2427669,
      "lon": 36.6648469,
      "tags": {
        "addr:city": "Kikuyu",
        "addr:street": "Post Office Road",
        "name": "Powerstar",
        "shop": "supermarket"
      }
    },
    {
      "type": "node",
      "id": 8334310087,
      "lat": -1.2055899,
      "lon": 36.7795549,
      "tags": {
        "addr:city": "Ruaka",
        "addr:street": "Northern Bypass",
        "name": "Cleanshelf",
        "shop": "supermarket"
      }
    },
    {
      "type": "node",
      "id": 8709146456,
      "lat": -1.1775571,
      "lon": 36.9829975,
      "tags": {
        "addr:city": "Ruiru",
        "addr:street": "Eastern Bypass",
        "email": "hardwarerwadhini@gmail.com",
        "name": "Rwadhini Hardwares",
        "opening_hours": "Mo-Fr 08:00-17:00",
        "payment:cash": "yes",
        "phone": "+254746874061",
        "shop": "supermarket"
      }
    },
    {
      "type": "node",
      "id": 8718475614,
      "lat": -1.1975231,
      "lon": 36.9270551,
      "tags": {
        "name": "Cleanshelf Supermarket",
        "shop": "supermarket"
      }
    },
    {
      "type": "node",
      "id": 8882251671,
      "lat": -1.1056762,
      "lon": 36.6371825,
      "tags": {
        "addr:city": "limuru",
        "addr:street": "Kiambu Road",
        "name": "salama hardware",
        "shop": "hardware"
      }
    },
    {
      "type": "node",
      "id": 8895105040,
      "lat": -1.128854,
      "lon": 36.9907189,
      "tags": {
        "addr:city": "Ruiru",
        "addr:street": "Thika Road",
        "brand": "Shell",
        "brand:wikidata": "Q154950",
        "brand:wikipedia": "en:Royal Dutch Shell",
        "name": "Shell",
        "shop": "convenience"
      }
    },
    {
      "type": "node",
      "id": 8962343776,
      "lat": -1.137815,
      "lon": 36.7593684,
      "tags": {
        "name": "Nector Hardware",
        "opening_hours": "Mo-Sa 08:00-18:00",
        "opening_hours:covid19": "open",
        "operator": "Mama Wakari",
        "payment:cash": "yes",
        "shop": "hardware"
      }
    },
    {
      "type": "node",
      "id": 9447164701,
      "lat": -1.2195133,
      "lon": 36.7761735,
      "tags": {
        "shop": "supermarket"
      }
    },
    {
      "type": "node",
      "id": 9447165121,
      "lat": -1.2177799,
      "lon": 36.7622865,
      "tags": {
        "shop": "bicycle"
      }
    },
    {
      "type": "node",
      "id": 9447165123,
      "lat": -1.2198614,
      "lon": 36.7665812,
      "tags": {
        "shop": "supermarket"
      }
    },
    {
      "type": "node",
      "id": 9458222917,
      "lat": -1.2558961,
      "lon": 36.6948916,
      "tags": {
        "addr:street": "A104",
        "name": "Jakmil Supermarket",
        "shop": "convenience"
      }
    },
    {
      "type": "node",
      "id": 9753013318,
      "lat": -1.2531906,
      "lon": 36.686374,
      "tags": {
        "shop": "wine"
      }
    },
    {
      "type": "node",
      "id": 9863673498,
      "lat": -1.1976068,
      "lon": 36.9264731,
      "tags": {
        "brand": "Shop & Go",
        "cash_withdrawal": "M-Pesa;KCB Mtaani",
        "name": "Hophy Enterprises",
        "opening_hours": "Mo-Fr,Su 06:00-22:00; PH open",
        "shop": "convenience",
        "wheelchair": "limited"
      }
    },
    {
      "type": "node",
      "id": 9919360424,
      "lat": -1.2543771,
      "lon": 36.7031835,
      "tags": {
        "level": "1",
        "name": "Eclipse Barbershop",
        "opening_hours": "Tu-Su 09:00-12:00,13:30-20:30; PH open",
        "shop": "hairdresser",
        "unisex": "yes",
        "wheelchair": "no"
      }
    },
    {
      "type": "node",
      "id": 9922051866,
      "lat": -1.2571886,
      "lon": 36.702705,
      "tags": {
        "changing_table": "no",
        "changing_table:fee": "no",
        "level": "2",
        "name": "Supreme Supermarket",
        "opening_hours": "Mo-Su 08:00-20:30; PH open",
        "organic": "yes",
        "shop": "supermarket",
        "toilets": "no",
        "toilets:access": "private",
        "toilets:wheelchair": "no",
        "wheelchair": "limited"
      }
    },
    {
      "type": "node",
      "id": 9988215622,
      "lat": -1.2197993,
      "lon": 36.7145555,
      "tags": {
        "name": "Self Ridges Supermarket",
        "shop": "supermarket"
      }
    },
    {
      "type": "node",
      "id": 10080476017,
      "lat": -1.2041294,
      "lon": 36.8337765,
      "tags": {
        "name": "Glamour barber shop",
        "shop": "beauty"
      }
    },
    {
      "type": "node",
      "id": 10611985848,
      "lat": -1.2167741,
      "lon": 36.7410323,
      "tags": {
        "name": "Kwa Kawera",
        "shop": "kiosk"
      }
    },
    {
      "type": "way",
      "id": 226609160,
      "nodes": [
        2353819097,
        2353819098,
        2353819099,
        2353819100,
        2353819097
      ],
      "tags": {
        "addr:city": "Kiambu",
        "addr:street": "Kiambu Road",
        "building": "yes",
        "name": "Evergreen Centre",
        "shop": "mall"
      }
    },
    {
      "type": "way",
      "id": 290377722,
      "nodes": [
        2939177231,
        2939177232,
        2939177234,
        2939177233,
        2939177231
      ],
      "tags": {
        "addr:city": "Thika",
        "addr:street": "kenyatta highway",
        "building": "yes",
        "name": "Tuskys Supermarket (Chania)",
        "shop": "supermarket"
      }
    },
    {
      "type": "way",
      "id": 291162630,
      "nodes": [
        2945891890,
        2945891893,
        2945891894,
        2945891892,
        2945891889,
        2945891890
      ],
      "tags": {
        "addr:city": "Thika",
        "addr:street": "Kenyatta Highway",
        "brand": "Shell",
        "brand:wikidata": "Q154950",
        "brand:wikipedia": "en:Royal Dutch Shell",
        "building": "yes",
        "name": "Shell",
        "shop": "convenience"
      }
    },
    {
      "type": "way",
      "id": 294318816,
      "nodes": [
        2979066235,
        2979066254,
        2979066266,
        2979066236,
        2979066235
      ],
      "tags": {
        "addr:city": "Kiambu",
        "addr:street": "Thika-Mang'u Road",
        "building": "yes",
        "name": "Ngoi SuperMarket",
        "shop": "supermarket"
      }
    },
    {
      "type": "way",
      "id": 294930721,
      "nodes": [
        2985740235,
        2985740236,
        2985740243,
        2985740240,
        2985740235
      ],
      "tags": {
        "addr:city": "Kiambu",
        "addr:street": "Thika-Mang'u Road",
        "building": "yes",
        "name": "Unique Housecare SuperMarket",
        "shop": "supermarket"
      }
    },
    {
      "type": "way",
      "id": 314838909,
      "nodes": [
        3208824701,
        3208824698,
        3208824700,
        3208824702,
        3208824701
      ],
      "tags": {
        "building": "yes",
        "name": "Three Rings Hardware",
        "shop": "hardware"
      }
    },
    {
      "type": "way",
      "id": 419727225,
      "nodes": [
        4197334180,
        4197334181,
        4197334182,
        4197334183,
        4197334184,
        4197334185,
        4197334186,
        4197334187,
        4197334188,
        4197334489,
        4197334490,
        4197334180
      ],
      "tags": {
        "building": "yes",
        "name": "Three roads Kiosk",
        "shop": "kiosk"
      }
    },
    {
      "type": "way",
      "id": 533781594,
      "nodes": [
        5178036698,
        5178036699,
        5178036700,
        5178036701,
        5178036702,
        5178036703,
        5178036704,
        5178036705,
        5178036706,
        5178036707,
        10651739445,
        10651739444,
        10651739446,
        5178036708,
        5178036698
      ],
      "tags": {
        "addr:city": "Ruiru",
        "addr:street": "Thika Road",
        "building": "yes",
        "city": "Ruiru",
        "name": "Unicity Mall",
        "shop": "mall"
      }
    },
    {
      "type": "way",
      "id": 551950638,
      "nodes": [
        5329718672,
        5329718673,
        5329718674,
        5329718678,
        5329718675,
        5329718676,
        5329718677,
        5329718672
      ],
      "tags": {
        "addr:city": "Kiambu",
        "addr:street": "Biashara Street Kiambu",
        "building": "yes",
        "name": "Kiambu Mortuary",
        "shop": "funeral_directors"
      }
    },
    {
      "type": "way",
      "id": 553574149,
      "nodes": [
        5343219971,
        5343219972,
        5343219973,
        5343219974,
        5343219971
      ],
      "tags": {
        "building": "yes",
        "name": "ELIFURNI FURNITURE LTD",
        "shop": "furniture"
      }
    },
    {
      "type": "way",
      "id": 553599211,
      "nodes": [
        5343417046,
        5343417047,
        5343417048,
        5343417049,
        5343417046
      ],
      "tags": {
        "addr:city": "KIAMBU",
        "addr:street": "Kiambu Road",
        "building": "yes",
        "name": "Quickmart",
        "payment:cash": "yes",
        "payment:coins": "yes",
        "payment:credit_cards": "yes",
        "payment:debit_cards": "yes",
        "payment:discover_card": "yes",
        "payment:mastercard": "yes",
        "payment:visa": "yes",
        "shop": "supermarket"
      }
    },
    {
      "type": "way",
      "id": 554633160,
      "nodes": [
        5352433963,
        5352433964,
        5352433968,
        5352433965,
        6161845845,
        5352433966,
        6161845846,
        6161845847,
        5352433963
      ],
      "tags": {
        "addr:city": "Kiambu",
        "addr:street": "Kiambu Road",
        "building": "yes",
        "name": "Motor Hub",
        "shop": "car"
      }
    },
    {
      "type": "way",
      "id": 644858081,
      "nodes": [
        6063333839,
        6063333840,
        6063333841,
        6063333842,
        6063333839
      ],
      "tags": {
        "addr:street": "Kiambu Road",
        "building": "yes",
        "name": "LIMURU MALL",
        "shop": "mall"
      }
    },
    {
      "type": "way",
      "id": 644858092,
      "nodes": [
        6063333880,
        6063333881,
        6063333882,
        6063333883,
        6063333880
      ],
      "tags": {
        "addr:city": "Kiambu",
        "addr:street": "Kiambu Road",
        "building": "yes",
        "name": "Naivas Supermarket",
        "shop": "supermarket"
      }
    },
    {
      "type": "way",
      "id": 644858099,
      "nodes": [
        6063334512,
        6063334524,
        6063334513,
        6063334514,
        6063334515,
        6063334516,
        6063334517,
        6063334518,
        6063334519,
        6063334520,
        6063334521,
        6063334522,
        6063334523,
        6063334512
      ],
      "tags": {
        "addr:city": "Kiambu",
        "addr:street": "Kiambu Road",
        "building": "yes",
        "name": "Shopping Mall",
        "shop": "mall"
      }
    },
    {
      "type": "way",
      "id": 644904155,
      "nodes": [
        6063644305,
        6063644306,
        6063644307,
        6063644308,
        6063644309,
        6063644305
      ],
      "tags": {
        "addr:city": "Githunguri",
        "addr:street": "Moi Road Kamuchege",
        "building": "yes",
        "name": "Mukoe Funeral Home",
        "shop": "funeral_directors"
      }
    },
    {
      "type": "way",
      "id": 657943810,
      "nodes": [
        6161845848,
        6161845849,
        6161845850,
        6161845851,
        6161845848
      ],
      "tags": {
        "addr:city": "Kiambu",
        "addr:street": "Kiambu Road",
        "building": "yes",
        "name": "Runda Car Care Centre",
        "shop": "car_repair"
      }
    },
    {
      "type": "way",
      "id": 662141510,
      "nodes": [
        6199038544,
        6199038545,
        6199038546,
        6199038547,
        6199038544
      ],
      "tags": {
        "addr:city": "Ruiru",
        "addr:street": "Thika Road",
        "building": "yes",
        "layer": "1",
        "name": "Spur Mall",
        "shop": "mall"
      }
    },
    {
      "type": "way",
      "id": 662141519,
      "nodes": [
        6199038615,
        6199038616,
        6199038617,
        6199038618,
        6199038615
      ],
      "tags": {
        "addr:city": "Ruiru",
        "addr:street": "Thika Road",
        "building": "yes",
        "name": "Adva Mall",
        "shop": "mall"
      }
    },
    {
      "type": "way",
      "id": 662141526,
      "nodes": [
        6199038659,
        6199038660,
        6199038661,
        6199038662,
        6199038659
      ],
      "tags": {
        "addr:city": "Thika",
        "addr:street": "Kenyatta Road",
        "building": "yes",
        "name": "Kenyatta Road Trade Centre",
        "shop": "mall"
      }
    },
    {
      "type": "way",
      "id": 662141528,
      "nodes": [
        6199038671,
        6199038672,
        6199038673,
        6199038674,
        6199038671
      ],
      "tags": {
        "addr:city": "Juja",
        "addr:street": "Thika Road",
        "building": "yes",
        "name": "Juja City Mall",
        "shop": "mall"
      }
    },
    {
      "type": "way",
      "id": 663444303,
      "nodes": [
        6209899663,
        6209899664,
        6209899665,
        6209899666,
        6209899667,
        6209899668,
        6209899663
      ],
      "tags": {
        "addr:city": "Thika",
        "addr:street": "kenyatta highway",
        "building": "yes",
        "name": "Thika Bazaar",
        "shop": "clothes"
      }
    },
    {
      "type": "way",
      "id": 668236898,
      "nodes": [
        6257722315,
        6257722316,
        6257722317,
        6257722318,
        6257722315
      ],
      "tags": {
        "addr:city": "Kiambu",
        "addr:street": "Kiambu Road",
        "building": "yes",
        "name": "Kiambu Mall",
        "shop": "mall"
      }
    },
    {
      "type": "way",
      "id": 731554426,
      "nodes": [
        6851086248,
        6851086249,
        6851086250,
        6851086251,
        6851086252,
        6851086253,
        6851086254,
        6851086255,
        6851086256,
        6851086248
      ],
      "tags": {
        "addr:city": "Thika",
        "addr:street": "Garissa Road",
        "building": "yes",
        "name": "Ananas Mall",
        "shop": "mall"
      }
    },
    {
      "type": "way",
      "id": 749412218,
      "nodes": [
        7008108316,
        7008108317,
        7008108318,
        7008108319,
        7008108316
      ],
      "tags": {
        "addr:city": "Kiambu",
        "addr:street": "Kiambu Road",
        "building": "yes",
        "name": "Fourways Motors",
        "shop": "car"
      }
    },
    {
      "type": "way",
      "id": 856784839,
      "nodes": [
        7988243451,
        7988243452,
        7988243453,
        7988243454,
        7988243455,
        7988243451
      ],
      "tags": {
        "building": "yes",
        "name": "Gemitech Hardware Ltd",
        "shop": "hardware"
      }
    },
    {
      "type": "way",
      "id": 1128241315,
      "nodes": [
        10314879230,
        10314879229,
        10314879228,
        10314879227,
        10314879230
      ],
      "tags": {
        "name": "The Eighty Seven Mall",
        "opening_hours": "Mo,Tu,Th,Fr 08:00-23:00; We 08:00-23:00; Sa 08:00-23:00; PH open",
        "shop": "mall",
        "wheelchair": "limited"
      }
    },
    {
      "type": "node",
      "id": 10314879227,
      "lat": -1.2563274,
      "lon": 36.7010536
    },
    {
      "type": "node",
      "id": 10314879228,
      "lat": -1.2561858,
      "lon": 36.7010525
    },
    {
      "type": "node",
      "id": 10314879229,
      "lat": -1.2562822,
      "lon": 36.7008657
    },
    {
      "type": "node",
      "id": 10314879230,
      "lat": -1.2564253,
      "lon": 36.7008917
    },
    {
      "type": "node",
      "id": 6063333839,
      "lat": -1.1076291,
      "lon": 36.6386184
    },
    {
      "type": "node",
      "id": 6063333840,
      "lat": -1.1081923,
      "lon": 36.638664
    },
    {
      "type": "node",
      "id": 6063333841,
      "lat": -1.1082684,
      "lon": 36.6391614
    },
    {
      "type": "node",
      "id": 6063333842,
      "lat": -1.1078472,
      "lon": 36.6390954
    },
    {
      "type": "node",
      "id": 6063333880,
      "lat": -1.1076908,
      "lon": 36.6405451
    },
    {
      "type": "node",
      "id": 6063333881,
      "lat": -1.107683,
      "lon": 36.6408138
    },
    {
      "type": "node",
      "id": 6063333882,
      "lat": -1.1080273,
      "lon": 36.6407955
    },
    {
      "type": "node",
      "id": 6063333883,
      "lat": -1.1079986,
      "lon": 36.6405216
    },
    {
      "type": "node",
      "id": 6063334512,
      "lat": -1.1087107,
      "lon": 36.6433314
    },
    {
      "type": "node",
      "id": 6063334513,
      "lat": -1.1093158,
      "lon": 36.6433053
    },
    {
      "type": "node",
      "id": 6063334514,
      "lat": -1.1093836,
      "lon": 36.643407
    },
    {
      "type": "node",
      "id": 6063334515,
      "lat": -1.1092871,
      "lon": 36.643514
    },
    {
      "type": "node",
      "id": 6063334516,
      "lat": -1.1092323,
      "lon": 36.6435427
    },
    {
      "type": "node",
      "id": 6063334517,
      "lat": -1.1091176,
      "lon": 36.643527
    },
    {
      "type": "node",
      "id": 6063334518,
      "lat": -1.1091071,
      "lon": 36.6435531
    },
    {
      "type": "node",
      "id": 6063334519,
      "lat": -1.1089871,
      "lon": 36.6435557
    },
    {
      "type": "node",
      "id": 6063334520,
      "lat": -1.1087524,
      "lon": 36.6435635
    },
    {
      "type": "node",
      "id": 6063334521,
      "lat": -1.108695,
      "lon": 36.6435244
    },
    {
      "type": "node",
      "id": 6063334522,
      "lat": -1.1086767,
      "lon": 36.6434644
    },
    {
      "type": "node",
      "id": 6063334523,
      "lat": -1.1086741,
      "lon": 36.6433705
    },
    {
      "type": "node",
      "id": 6063334524,
      "lat": -1.1087629,
      "lon": 36.6433016
    },
    {
      "type": "node",
      "id": 4197334180,
      "lat": -1.1773179,
      "lon": 36.7796817
    },
    {
      "type": "node",
      "id": 4197334181,
      "lat": -1.1772965,
      "lon": 36.7796864
    },
    {
      "type": "node",
      "id": 4197334182,
      "lat": -1.1772757,
      "lon": 36.7796911
    },
    {
      "type": "node",
      "id": 4197334183,
      "lat": -1.177269,
      "lon": 36.7796945
    },
    {
      "type": "node",
      "id": 4197334184,
      "lat": -1.1772696,
      "lon": 36.7797152
    },
    {
      "type": "node",
      "id": 4197334185,
      "lat": -1.1772763,
      "lon": 36.7797327
    },
    {
      "type": "node",
      "id": 4197334186,
      "lat": -1.1772857,
      "lon": 36.7797394
    },
    {
      "type": "node",
      "id": 4197334187,
      "lat": -1.1773112,
      "lon": 36.7797347
    },
    {
      "type": "node",
      "id": 4197334188,
      "lat": -1.1773246,
      "lon": 36.7797327
    },
    {
      "type": "node",
      "id": 4197334489,
      "lat": -1.1773327,
      "lon": 36.7797307
    },
    {
      "type": "node",
      "id": 4197334490,
      "lat": -1.17733,
      "lon": 36.7797059
    },
    {
      "type": "node",
      "id": 2353819097,
      "lat": -1.2096463,
      "lon": 36.832594
    },
    {
      "type": "node",
      "id": 2353819098,
      "lat": -1.2096608,
      "lon": 36.8328136
    },
    {
      "type": "node",
      "id": 2353819099,
      "lat": -1.210348,
      "lon": 36.8327661
    },
    {
      "type": "node",
      "id": 2353819100,
      "lat": -1.2103335,
      "lon": 36.8325609
    },
    {
      "type": "node",
      "id": 5352433963,
      "lat": -1.2110613,
      "lon": 36.8334576
    },
    {
      "type": "node",
      "id": 5352433964,
      "lat": -1.2108381,
      "lon": 36.8333619
    },
    {
      "type": "node",
      "id": 5352433965,
      "lat": -1.2106849,
      "lon": 36.8336288
    },
    {
      "type": "node",
      "id": 5352433966,
      "lat": -1.2110626,
      "lon": 36.8336609
    },
    {
      "type": "node",
      "id": 5352433968,
      "lat": -1.2106816,
      "lon": 36.8335857
    },
    {
      "type": "node",
      "id": 6161845845,
      "lat": -1.2109761,
      "lon": 36.83384
    },
    {
      "type": "node",
      "id": 6161845846,
      "lat": -1.2111394,
      "lon": 36.8335505
    },
    {
      "type": "node",
      "id": 6161845847,
      "lat": -1.2111571,
      "lon": 36.8335019
    },
    {
      "type": "node",
      "id": 6161845848,
      "lat": -1.2111853,
      "lon": 36.8336455
    },
    {
      "type": "node",
      "id": 6161845849,
      "lat": -1.2110283,
      "lon": 36.8339007
    },
    {
      "type": "node",
      "id": 6161845850,
      "lat": -1.21129,
      "lon": 36.8340469
    },
    {
      "type": "node",
      "id": 6161845851,
      "lat": -1.2114711,
      "lon": 36.8337785
    },
    {
      "type": "node",
      "id": 7008108316,
      "lat": -1.2126207,
      "lon": 36.8325984
    },
    {
      "type": "node",
      "id": 7008108317,
      "lat": -1.2120207,
      "lon": 36.8333443
    },
    {
      "type": "node",
      "id": 7008108318,
      "lat": -1.2123636,
      "lon": 36.8335843
    },
    {
      "type": "node",
      "id": 7008108319,
      "lat": -1.2128178,
      "lon": 36.8330099
    },
    {
      "type": "node",
      "id": 5343417048,
      "lat": -1.2026462,
      "lon": 36.8334181
    },
    {
      "type": "node",
      "id": 5343417046,
      "lat": -1.2019915,
      "lon": 36.8328756
    },
    {
      "type": "node",
      "id": 5343417047,
      "lat": -1.2022736,
      "lon": 36.8326863
    },
    {
      "type": "node",
      "id": 5343417049,
      "lat": -1.2023578,
      "lon": 36.8335681
    },
    {
      "type": "node",
      "id": 5329718672,
      "lat": -1.1703541,
      "lon": 36.8309999
    },
    {
      "type": "node",
      "id": 5329718675,
      "lat": -1.1705736,
      "lon": 36.831098
    },
    {
      "type": "node",
      "id": 5329718676,
      "lat": -1.1705036,
      "lon": 36.8309485
    },
    {
      "type": "node",
      "id": 5329718677,
      "lat": -1.1704195,
      "lon": 36.8309579
    },
    {
      "type": "node",
      "id": 6257722315,
      "lat": -1.1648535,
      "lon": 36.8241184
    },
    {
      "type": "node",
      "id": 6257722318,
      "lat": -1.1652833,
      "lon": 36.8243261
    },
    {
      "type": "node",
      "id": 6257722316,
      "lat": -1.16453,
      "lon": 36.8249588
    },
    {
      "type": "node",
      "id": 6257722317,
      "lat": -1.1649887,
      "lon": 36.8251907
    },
    {
      "type": "node",
      "id": 5343219971,
      "lat": -1.1806014,
      "lon": 36.8382581
    },
    {
      "type": "node",
      "id": 5343219972,
      "lat": -1.1813131,
      "lon": 36.8383317
    },
    {
      "type": "node",
      "id": 5343219973,
      "lat": -1.1813213,
      "lon": 36.8388718
    },
    {
      "type": "node",
      "id": 5343219974,
      "lat": -1.1805278,
      "lon": 36.8387408
    },
    {
      "type": "node",
      "id": 5329718673,
      "lat": -1.1704195,
      "lon": 36.8313034
    },
    {
      "type": "node",
      "id": 5329718674,
      "lat": -1.1705362,
      "lon": 36.8312801
    },
    {
      "type": "node",
      "id": 5329718678,
      "lat": -1.1706086,
      "lon": 36.8312637
    },
    {
      "type": "node",
      "id": 6063644305,
      "lat": -1.0542761,
      "lon": 36.7781998
    },
    {
      "type": "node",
      "id": 6063644306,
      "lat": -1.0545804,
      "lon": 36.7782458
    },
    {
      "type": "node",
      "id": 6063644307,
      "lat": -1.0545839,
      "lon": 36.7786068
    },
    {
      "type": "node",
      "id": 6063644308,
      "lat": -1.0545061,
      "lon": 36.7788404
    },
    {
      "type": "node",
      "id": 6063644309,
      "lat": -1.0541381,
      "lon": 36.7788546
    },
    {
      "type": "node",
      "id": 5178036702,
      "lat": -1.1765246,
      "lon": 36.9405908
    },
    {
      "type": "node",
      "id": 5178036703,
      "lat": -1.1768678,
      "lon": 36.9403289
    },
    {
      "type": "node",
      "id": 5178036704,
      "lat": -1.1768607,
      "lon": 36.9401731
    },
    {
      "type": "node",
      "id": 5178036705,
      "lat": -1.176928,
      "lon": 36.9401519
    },
    {
      "type": "node",
      "id": 5178036706,
      "lat": -1.1769421,
      "lon": 36.9400386
    },
    {
      "type": "node",
      "id": 5178036707,
      "lat": -1.1768961,
      "lon": 36.9398864
    },
    {
      "type": "node",
      "id": 10651739444,
      "lat": -1.1767186,
      "lon": 36.9394838
    },
    {
      "type": "node",
      "id": 10651739445,
      "lat": -1.1769047,
      "lon": 36.9397133
    },
    {
      "type": "node",
      "id": 10651739446,
      "lat": -1.1764146,
      "lon": 36.9397707
    },
    {
      "type": "node",
      "id": 5178036698,
      "lat": -1.1755833,
      "lon": 36.9399573
    },
    {
      "type": "node",
      "id": 5178036699,
      "lat": -1.1760009,
      "lon": 36.9404846
    },
    {
      "type": "node",
      "id": 5178036700,
      "lat": -1.1760681,
      "lon": 36.9403997
    },
    {
      "type": "node",
      "id": 5178036701,
      "lat": -1.1763264,
      "lon": 36.9402616
    },
    {
      "type": "node",
      "id": 5178036708,
      "lat": -1.1761036,
      "lon": 36.9395125
    },
    {
      "type": "node",
      "id": 3208824698,
      "lat": -1.1690718,
      "lon": 36.9704301
    },
    {
      "type": "node",
      "id": 3208824700,
      "lat": -1.1691638,
      "lon": 36.9705995
    },
    {
      "type": "node",
      "id": 3208824701,
      "lat": -1.1693858,
      "lon": 36.9702402
    },
    {
      "type": "node",
      "id": 3208824702,
      "lat": -1.1694981,
      "lon": 36.9704138
    },
    {
      "type": "node",
      "id": 7988243451,
      "lat": -1.1849686,
      "lon": 36.9945573
    },
    {
      "type": "node",
      "id": 7988243452,
      "lat": -1.184797,
      "lon": 36.9946423
    },
    {
      "type": "node",
      "id": 7988243453,
      "lat": -1.1848359,
      "lon": 36.994736
    },
    {
      "type": "node",
      "id": 7988243454,
      "lat": -1.1850182,
      "lon": 36.9946493
    },
    {
      "type": "node",
      "id": 7988243455,
      "lat": -1.185004,
      "lon": 36.9946157
    },
    {
      "type": "node",
      "id": 6199038545,
      "lat": -1.1371177,
      "lon": 36.9694737
    },
    {
      "type": "node",
      "id": 6199038546,
      "lat": -1.1374055,
      "lon": 36.9699467
    },
    {
      "type": "node",
      "id": 6199038547,
      "lat": -1.1370889,
      "lon": 36.9701523
    },
    {
      "type": "node",
      "id": 6199038544,
      "lat": -1.1368052,
      "lon": 36.9696629
    },
    {
      "type": "node",
      "id": 6199038615,
      "lat": -1.128692,
      "lon": 36.9892095
    },
    {
      "type": "node",
      "id": 6199038616,
      "lat": -1.129064,
      "lon": 36.9892897
    },
    {
      "type": "node",
      "id": 6199038617,
      "lat": -1.1290448,
      "lon": 36.9896008
    },
    {
      "type": "node",
      "id": 6199038618,
      "lat": -1.1286792,
      "lon": 36.9894597
    },
    {
      "type": "node",
      "id": 6199038659,
      "lat": -1.1246899,
      "lon": 37.0045545
    },
    {
      "type": "node",
      "id": 6199038660,
      "lat": -1.1248118,
      "lon": 37.004516
    },
    {
      "type": "node",
      "id": 6199038661,
      "lat": -1.1249433,
      "lon": 37.0048015
    },
    {
      "type": "node",
      "id": 6199038662,
      "lat": -1.1248022,
      "lon": 37.004872
    },
    {
      "type": "node",
      "id": 6199038674,
      "lat": -1.118228,
      "lon": 37.0080836
    },
    {
      "type": "node",
      "id": 6199038671,
      "lat": -1.1188833,
      "lon": 37.0085559
    },
    {
      "type": "node",
      "id": 6199038672,
      "lat": -1.1180628,
      "lon": 37.0090991
    },
    {
      "type": "node",
      "id": 6199038673,
      "lat": -1.1176791,
      "lon": 37.0085382
    },
    {
      "type": "node",
      "id": 2985740236,
      "lat": -1.0387361,
      "lon": 37.0400564
    },
    {
      "type": "node",
      "id": 2985740240,
      "lat": -1.0388859,
      "lon": 37.0394184
    },
    {
      "type": "node",
      "id": 2985740243,
      "lat": -1.0390079,
      "lon": 37.040012
    },
    {
      "type": "node",
      "id": 2985740235,
      "lat": -1.0386086,
      "lon": 37.039485
    },
    {
      "type": "node",
      "id": 2979066235,
      "lat": -1.0421018,
      "lon": 37.0489083
    },
    {
      "type": "node",
      "id": 2979066236,
      "lat": -1.042107,
      "lon": 37.049243
    },
    {
      "type": "node",
      "id": 2979066254,
      "lat": -1.0422306,
      "lon": 37.048898
    },
    {
      "type": "node",
      "id": 2979066266,
      "lat": -1.0423026,
      "lon": 37.0492379
    },
    {
      "type": "node",
      "id": 2939177231,
      "lat": -1.0410097,
      "lon": 37.0718502
    },
    {
      "type": "node",
      "id": 2939177232,
      "lat": -1.0412274,
      "lon": 37.0725631
    },
    {
      "type": "node",
      "id": 2939177233,
      "lat": -1.0412995,
      "lon": 37.0717467
    },
    {
      "type": "node",
      "id": 2939177234,
      "lat": -1.0414972,
      "lon": 37.0724731
    },
    {
      "type": "node",
      "id": 6209899663,
      "lat": -1.0391259,
      "lon": 37.072214
    },
    {
      "type": "node",
      "id": 6209899664,
      "lat": -1.0391904,
      "lon": 37.0724935
    },
    {
      "type": "node",
      "id": 6209899665,
      "lat": -1.0396333,
      "lon": 37.072601
    },
    {
      "type": "node",
      "id": 6209899666,
      "lat": -1.0396634,
      "lon": 37.0725752
    },
    {
      "type": "node",
      "id": 6209899667,
      "lat": -1.0395602,
      "lon": 37.0721753
    },
    {
      "type": "node",
      "id": 6209899668,
      "lat": -1.0394742,
      "lon": 37.0721194
    },
    {
      "type": "node",
      "id": 2945891889,
      "lat": -1.0370357,
      "lon": 37.073936
    },
    {
      "type": "node",
      "id": 2945891890,
      "lat": -1.0370808,
      "lon": 37.0741479
    },
    {
      "type": "node",
      "id": 2945891892,
      "lat": -1.0371844,
      "lon": 37.0739264
    },
    {
      "type": "node",
      "id": 2945891893,
      "lat": -1.0371505,
      "lon": 37.0741135
    },
    {
      "type": "node",
      "id": 2945891894,
      "lat": -1.0372085,
      "lon": 37.0741309
    },
    {
      "type": "node",
      "id": 6851086248,
      "lat": -1.0560265,
      "lon": 37.1135475
    },
    {
      "type": "node",
      "id": 6851086249,
      "lat": -1.0552787,
      "lon": 37.1137469
    },
    {
      "type": "node",
      "id": 6851086250,
      "lat": -1.0546904,
      "lon": 37.1139414
    },
    {
      "type": "node",
      "id": 6851086251,
      "lat": -1.0551839,
      "lon": 37.1156568
    },
    {
      "type": "node",
      "id": 6851086252,
      "lat": -1.0554233,
      "lon": 37.1156069
    },
    {
      "type": "node",
      "id": 6851086253,
      "lat": -1.0556576,
      "lon": 37.1153227
    },
    {
      "type": "node",
      "id": 6851086254,
      "lat": -1.0563207,
      "lon": 37.114834
    },
    {
      "type": "node",
      "id": 6851086255,
      "lat": -1.0566148,
      "lon": 37.1147243
    },
    {
      "type": "node",
      "id": 6851086256,
      "lat": -1.0562609,
      "lon": 37.1139115
    }
  ]
}